{"fetched_at":"2026-03-30T06:02:59Z","count":15439,"tles":[{"name":"STARLINK-1202","line1":"1 45183U 20012F   26087.89105212  .00006574  00000+0  23388-3 0  9995","line2":"2 45183  53.1582 310.0634 0001168  85.8683 274.2451 15.30201314337893","category":"Starlink"}]}